{"type": "FeatureCollection", "features": [ {"type": "Feature", "properties": {"norad_id": 66777, "name": "TRANSPORTER-15DR", "group": "last-30-days", "lat": 28.866820580187092, "lon": -105.75402747301621, "alt_km": 505.9326410069707, "timestamp": "2025-12-24T11:32:58.718909+00:00", "meta": {"OBJECT_NAME": "TRANSPORTER-15DR", "OBJECT_ID": "2025-276DR", "EPOCH": "2025-12-24T02:58:59.221056", "MEAN_MOTION": 15.18943998, "ECCENTRICITY": 0.0003557, "INCLINATION": 97.4466, "RA_OF_ASC_NODE": 69.7594, "ARG_OF_PERICENTER": 109.4067, "MEAN_ANOMALY": 250.7552, "EPHEMERIS_TYPE": 0, "CLASSIFICATION_TYPE": "U", "NORAD_CAT_ID": 66777, "ELEMENT_SET_NO": 999, "REV_AT_EPOCH": 385, "BSTAR": 0.00057296, "MEAN_MOTION_DOT": 0.00011914, "MEAN_MOTION_DDOT": 0}, "tle": {"line1": "1 66777U 25276DR  25358.12429654  .00011914  00000+0  57296-3 0  9998", "line2": "2 66777  97.4466  69.7594 0003557 109.4067 250.7552 15.18943998  3857"}}, "geometry": {"type": "Point", "coordinates": [-105.75402747301621, 28.866820580187092]}}, {"type": "Feature", "properties": {"norad_id": 66778, "name": "TRANSPORTER-15DS", "group": "last-30-days", "lat": -16.59120911471209, "lon": 72.25575920647073, "alt_km": 519.3562702006657, "timestamp": "2025-12-24T11:32:58.718921+00:00", "meta": {"OBJECT_NAME": "TRANSPORTER-15DS", "OBJECT_ID": "2025-276DS", "EPOCH": "2025-12-18T19:26:21.991200", "MEAN_MOTION": 15.16535337, "ECCENTRICITY": 0.00032319, "INCLINATION": 97.4427, "RA_OF_ASC_NODE": 64.4586, "ARG_OF_PERICENTER": 41.3734, "MEAN_ANOMALY": 318.7744, "EPHEMERIS_TYPE": 0, "CLASSIFICATION_TYPE": "U", "NORAD_CAT_ID": 66778, "ELEMENT_SET_NO": 999, "REV_AT_EPOCH": 304, "BSTAR": 0.00025483693, "MEAN_MOTION_DOT": 4.904e-05, "MEAN_MOTION_DDOT": 0}, "tle": {"line1": "1 66778U 25276DS  25352.80997675  .00004904  00000+0  25484-3 0  9996", "line2": "2 66778  97.4427  64.4586 0003231  41.3734 318.7744 15.16535337  3043"}}, "geometry": {"type": "Point", "coordinates": [72.25575920647073, -16.59120911471209]}}, {"type": "Feature", "properties": {"norad_id": 66791, "name": "STARLINK-35867", "group": "last-30-days", "lat": 2.815120531538353, "lon": -1.4553009948738844, "alt_km": 422.73185795766767, "timestamp": "2025-12-24T11:32:58.718934+00:00", "meta": {"OBJECT_NAME": "STARLINK-35867", "OBJECT_ID": "2025-278A", "EPOCH": "2025-12-24T04:00:01.998720", "MEAN_MOTION": 15.49258091, "ECCENTRICITY": 0.0001725, "INCLINATION": 42.9999, "RA_OF_ASC_NODE": 183.4041, "ARG_OF_PERICENTER": 265.2, "MEAN_ANOMALY": 315.0221, "EPHEMERIS_TYPE": 0, "CLASSIFICATION_TYPE": "U", "NORAD_CAT_ID": 66791, "ELEMENT_SET_NO": 999, "REV_AT_EPOCH": 479, "BSTAR": -0.042754, "MEAN_MOTION_DOT": -0.02121867, "MEAN_MOTION_DDOT": 0}, "tle": {"line1": "1 66791U 25278A   25358.16668980 -.02121867  00000+0 -42754-1 0  9991", "line2": "2 66791  42.9999 183.4041 0001725 265.2000 315.0221 15.49258091  4792"}}, "geometry": {"type": "Point", "coordinates": [-1.4553009948738844, 2.815120531538353]}}, {"type": "Feature", "properties": {"norad_id": 66792, "name": "STARLINK-35990", "group": "last-30-days", "lat": -0.6086449832339644, "lon": 2.21041753717299, "alt_km": 415.03406124952835, "timestamp": "2025-12-24T11:32:58.718967+00:00", "meta": {"OBJECT_NAME": "STARLINK-35990", "OBJECT_ID": "2025-278B", "EPOCH": "2025-12-24T04:00:01.998720", "MEAN_MOTION": 15.5060158, "ECCENTRICITY": 0.0001878, "INCLINATION": 42.9999, "RA_OF_ASC_NODE": 183.3975, "ARG_OF_PERICENTER": 271.4219, "MEAN_ANOMALY": 311.4865, "EPHEMERIS_TYPE": 0, "CLASSIFICATION_TYPE": "U", "NORAD_CAT_ID": 66792, "ELEMENT_SET_NO": 999, "REV_AT_EPOCH": 479, "BSTAR": -0.0013831, "MEAN_MOTION_DOT": -0.00080717, "MEAN_MOTION_DDOT": 0}, "tle": {"line1": "1 66792U 25278B   25358.16668980 -.00080717  00000+0 -13831-2 0  9993", "line2": "2 66792  42.9999 183.3975 0001878 271.4219 311.4865 15.50601580  4799"}}, "geometry": {"type": "Point", "coordinates": [2.21041753717299, -0.6086449832339644]}}, {"type": "Feature", "properties": {"norad_id": 66793, "name": "STARLINK-36051", "group": "last-30-days", "lat": -3.229737608519817, "lon": 5.019394754861734, "alt_km": 415.2467491327534, "timestamp": "2025-12-24T11:32:58.718979+00:00", "meta": {"OBJECT_NAME": "STARLINK-36051", "OBJECT_ID": "2025-278C", "EPOCH": "2025-12-24T04:00:01.998720", "MEAN_MOTION": 15.50594438, "ECCENTRICITY": 0.0001659, "INCLINATION": 42.9999, "RA_OF_ASC_NODE": 183.3879, "ARG_OF_PERICENTER": 268.9531, "MEAN_ANOMALY": 317.8068, "EPHEMERIS_TYPE": 0, "CLASSIFICATION_TYPE": "U", "NORAD_CAT_ID": 66793, "ELEMENT_SET_NO": 999, "REV_AT_EPOCH": 469, "BSTAR": -0.0013096, "MEAN_MOTION_DOT": -0.00076469, "MEAN_MOTION_DDOT": 0}, "tle": {"line1": "1 66793U 25278C   25358.16668980 -.00076469  00000+0 -13096-2 0  9996", "line2": "2 66793  42.9999 183.3879 0001659 268.9531 317.8068 15.50594438  4695"}}, "geometry": {"type": "Point", "coordinates": [5.019394754861734, -3.229737608519817]}}, {"type": "Feature", "properties": {"norad_id": 66794, "name": "STARLINK-36062", "group": "last-30-days", "lat": -1.9145397967194342, "lon": 3.6079982846294496, "alt_km": 415.04942181649585, "timestamp": "2025-12-24T11:32:58.718990+00:00", "meta": {"OBJECT_NAME": "STARLINK-36062", "OBJECT_ID": "2025-278D", "EPOCH": "2025-12-24T04:00:01.998720", "MEAN_MOTION": 15.50602612, "ECCENTRICITY": 0.0002145, "INCLINATION": 42.9998, "RA_OF_ASC_NODE": 183.3925, "ARG_OF_PERICENTER": 266.8718, "MEAN_ANOMALY": 317.956, "EPHEMERIS_TYPE": 0, "CLASSIFICATION_TYPE": "U", "NORAD_CAT_ID": 66794, "ELEMENT_SET_NO": 999, "REV_AT_EPOCH": 479, "BSTAR": -0.0014564, "MEAN_MOTION_DOT": -0.00084938, "MEAN_MOTION_DDOT": 0}, "tle": {"line1": "1 66794U 25278D   25358.16668980 -.00084938  00000+0 -14564-2 0  9998", "line2": "2 66794  42.9998 183.3925 0002145 266.8718 317.9560 15.50602612  4795"}}, "geometry": {"type": "Point", "coordinates": [3.6079982846294496, -1.9145397967194342]}}, {"type": "Feature", "properties": {"norad_id": 66795, "name": "STARLINK-36047", "group": "last-30-days", "lat": -4.532613872989794, "lon": 6.423234396570819, "alt_km": 415.3566501235082, "timestamp": "2025-12-24T11:32:58.719000+00:00", "meta": {"OBJECT_NAME": "STARLINK-36047", "OBJECT_ID": "2025-278E", "EPOCH": "2025-12-24T04:00:01.998720", "MEAN_MOTION": 15.50524769, "ECCENTRICITY": 0.0001738, "INCLINATION": 42.9999, "RA_OF_ASC_NODE": 183.3832, "ARG_OF_PERICENTER": 268.512, "MEAN_ANOMALY": 320.2057, "EPHEMERIS_TYPE": 0, "CLASSIFICATION_TYPE": "U", "NORAD_CAT_ID": 66795, "ELEMENT_SET_NO": 999, "REV_AT_EPOCH": 469, "BSTAR": 0.00052309, "MEAN_MOTION_DOT": 0.00030406, "MEAN_MOTION_DDOT": 0}, "tle": {"line1": "1 66795U 25278E   25358.16668980  .00030406  00000+0  52309-3 0  9998", "line2": "2 66795  42.9999 183.3832 0001738 268.5120 320.2057 15.50524769  4690"}}, "geometry": {"type": "Point", "coordinates": [6.423234396570819, -4.532613872989794]}}, {"type": "Feature", "properties": {"norad_id": 66796, "name": "STARLINK-35964", "group": "last-30-days", "lat": 42.418220667999826, "lon": -79.72009344979642, "alt_km": 320.5664677459881, "timestamp": "2025-12-24T11:32:58.719011+00:00", "meta": {"OBJECT_NAME": "STARLINK-35964", "OBJECT_ID": "2025-278F", "EPOCH": "2025-12-23T21:29:33.861984", "MEAN_MOTION": 15.80993067, "ECCENTRICITY": 0.000165, "INCLINATION": 42.9911, "RA_OF_ASC_NODE": 182.6388, "ARG_OF_PERICENTER": 276.683, "MEAN_ANOMALY": 83.3854, "EPHEMERIS_TYPE": 0, "CLASSIFICATION_TYPE": "U", "NORAD_CAT_ID": 66796, "ELEMENT_SET_NO": 999, "REV_AT_EPOCH": 361, "BSTAR": 0.0020063, "MEAN_MOTION_DOT": 0.00422691, "MEAN_MOTION_DDOT": 0}, "tle": {"line1": "1 66796U 25278F   25357.89553081  .00422691  00000+0  20063-2 0  9995", "line2": "2 66796  42.9911 182.6388 0001650 276.6830  83.3854 15.80993067  3611"}}, "geometry": {"type": "Point", "coordinates": [-79.72009344979642, 42.418220667999826]}}, {"type": "Feature", "properties": {"norad_id": 66797, "name": "STARLINK-36099", "group": "last-30-days", "lat": -7.117953834211435, "lon": 9.234467847302097, "alt_km": 415.5095714193594, "timestamp": "2025-12-24T11:32:58.719024+00:00", "meta": {"OBJECT_NAME": "STARLINK-36099", "OBJECT_ID": "2025-278G", "EPOCH": "2025-12-24T04:00:01.998720", "MEAN_MOTION": 15.50596485, "ECCENTRICITY": 0.0001856, "INCLINATION": 43, "RA_OF_ASC_NODE": 183.3735, "ARG_OF_PERICENTER": 266.8451, "MEAN_ANOMALY": 325.6435, "EPHEMERIS_TYPE": 0, "CLASSIFICATION_TYPE": "U", "NORAD_CAT_ID": 66797, "ELEMENT_SET_NO": 999, "REV_AT_EPOCH": 485, "BSTAR": -0.0011553, "MEAN_MOTION_DOT": -0.00067582, "MEAN_MOTION_DDOT": 0}, "tle": {"line1": "1 66797U 25278G   25358.16668980 -.00067582  00000+0 -11553-2 0  9992", "line2": "2 66797  43.0000 183.3735 0001856 266.8451 325.6435 15.50596485  4859"}}, "geometry": {"type": "Point", "coordinates": [9.234467847302097, -7.117953834211435]}}, {"type": "Feature", "properties": {"norad_id": 66798, "name": "STARLINK-36041", "group": "last-30-days", "lat": -8.421513692613923, "lon": 10.670338002918655, "alt_km": 415.7434229002547, "timestamp": "2025-12-24T11:32:58.719037+00:00", "meta": {"OBJECT_NAME": "STARLINK-36041", "OBJECT_ID": "2025-278H", "EPOCH": "2025-12-24T04:00:01.998720", "MEAN_MOTION": 15.50625775, "ECCENTRICITY": 0.0002008, "INCLINATION": 42.9999, "RA_OF_ASC_NODE": 183.3688, "ARG_OF_PERICENTER": 272.7444, "MEAN_ANOMALY": 321.6649, "EPHEMERIS_TYPE": 0, "CLASSIFICATION_TYPE": "U", "NORAD_CAT_ID": 66798, "ELEMENT_SET_NO": 999, "REV_AT_EPOCH": 463, "BSTAR": -0.0020391, "MEAN_MOTION_DOT": -0.0011838, "MEAN_MOTION_DDOT": 0}, "tle": {"line1": "1 66798U 25278H   25358.16668980 -.00118380  00000+0 -20391-2 0  9996", "line2": "2 66798  42.9999 183.3688 0002008 272.7444 321.6649 15.50625775  4634"}}, "geometry": {"type": "Point", "coordinates": [10.670338002918655, -8.421513692613923]}}]}